start=new Date('2022-09-26T00:00:00.000Z').valueOf();
sats=[{"MEAN_ELEMENT_THEORY":"SGP4","MEAN_MOTION":"15.08840142","ECCENTRICITY":"0.00020690","EPOCH":"2022-09-25T13:06:20.062656","ELEMENT_SET_NO":"999","DECAY_DATE":null,"COUNTRY_CODE":"US","APOAPSIS":"541.176","TLE_LINE1":"1 51754U 22016AS  22268.54606554  .00001880  00000-0  13622-3 0  9992","SEMIMAJOR_AXIS":"6917.880","BSTAR":"0.00013622000000","CLASSIFICATION_TYPE":"U","RA_OF_ASC_NODE":"210.6163","MEAN_MOTION_DDOT":"0.0000000000000","TLE_LINE2":"2 51754  53.2175 210.6163 0002069  46.0705 314.0458 15.08840142 34426","GP_ID":"213422013","MEAN_ANOMALY":"314.0458","OBJECT_TYPE":"PAYLOAD","OBJECT_NAME":"STARLINK-3457","REV_AT_EPOCH":"3442","SITE":"AFETR","CENTER_NAME":"EARTH","PERIOD":"95.438","TIME_SYSTEM":"UTC","MEAN_MOTION_DOT":"0.00001880","INCLINATION":"53.2175","RCS_SIZE":"LARGE","EPHEMERIS_TYPE":"0","REF_FRAME":"TEME","PERIAPSIS":"538.314","FILE":"3583330","NORAD_CAT_ID":"51754","OBJECT_ID":"2022-016AS","LAUNCH_DATE":"2022-02-21","ARG_OF_PERICENTER":"46.0705"},{"BSTAR":"0.00099387000000","TLE_LINE1":"1 51755U 22016AT  22268.81376775  .00015561  00000-0  99387-3 0  9995","SEMIMAJOR_AXIS":"6917.908","APOAPSIS":"541.244","DECAY_DATE":null,"COUNTRY_CODE":"US","RA_OF_ASC_NODE":"209.4185","CLASSIFICATION_TYPE":"U","MEAN_ELEMENT_THEORY":"SGP4","ELEMENT_SET_NO":"999","ECCENTRICITY":"0.00021260","EPOCH":"2022-09-25T19:31:49.533600","MEAN_MOTION":"15.08831021","OBJECT_TYPE":"PAYLOAD","MEAN_ANOMALY":"312.7451","REV_AT_EPOCH":"3335","OBJECT_NAME":"STARLINK-3460","GP_ID":"213508260","TLE_LINE2":"2 51755  53.2166 209.4185 0002126  47.3720 312.7451 15.08831021 33357","MEAN_MOTION_DDOT":"0.0000000000000","INCLINATION":"53.2166","MEAN_MOTION_DOT":"0.00015561","TIME_SYSTEM":"UTC","RCS_SIZE":"LARGE","CENTER_NAME":"EARTH","SITE":"AFETR","PERIOD":"95.438","FILE":"3583828","NORAD_CAT_ID":"51755","ARG_OF_PERICENTER":"47.3720","LAUNCH_DATE":"2022-02-21","OBJECT_ID":"2022-016AT","EPHEMERIS_TYPE":"0","PERIAPSIS":"538.302","REF_FRAME":"TEME"},{"SITE":"AFETR","CENTER_NAME":"EARTH","PERIOD":"95.438","TIME_SYSTEM":"UTC","INCLINATION":"53.2188","MEAN_MOTION_DOT":"-0.00000437","RCS_SIZE":"LARGE","EPHEMERIS_TYPE":"0","PERIAPSIS":"538.584","REF_FRAME":"TEME","FILE":"3583828","NORAD_CAT_ID":"51756","ARG_OF_PERICENTER":"49.3964","OBJECT_ID":"2022-016AU","LAUNCH_DATE":"2022-02-21","MEAN_ELEMENT_THEORY":"SGP4","ECCENTRICITY":"0.00016910","EPOCH":"2022-09-25T20:24:47.551968","MEAN_MOTION":"15.08837289","ELEMENT_SET_NO":"999","COUNTRY_CODE":"US","DECAY_DATE":null,"SEMIMAJOR_AXIS":"6917.889","TLE_LINE1":"1 51756U 22016AU  22268.85055037 -.00000437  00000-0 -93893-5 0  9991","BSTAR":"-0.00000938930000","APOAPSIS":"540.923","CLASSIFICATION_TYPE":"U","RA_OF_ASC_NODE":"209.2528","MEAN_MOTION_DDOT":"0.0000000000000","TLE_LINE2":"2 51756  53.2188 209.2528 0001691  49.3964 310.7175 15.08837289 33363","GP_ID":"213507022","OBJECT_TYPE":"PAYLOAD","MEAN_ANOMALY":"310.7175","OBJECT_NAME":"STARLINK-3513","REV_AT_EPOCH":"3336"},{"RCS_SIZE":"LARGE","TIME_SYSTEM":"UTC","MEAN_MOTION_DOT":"0.00005313","INCLINATION":"53.2184","PERIOD":"95.436","SITE":"AFETR","CENTER_NAME":"EARTH","ARG_OF_PERICENTER":"44.5850","OBJECT_ID":"2022-016AV","LAUNCH_DATE":"2022-02-21","NORAD_CAT_ID":"51757","FILE":"3583828","REF_FRAME":"TEME","PERIAPSIS":"538.297","EPHEMERIS_TYPE":"0","CLASSIFICATION_TYPE":"U","RA_OF_ASC_NODE":"209.2653","COUNTRY_CODE":"US","DECAY_DATE":null,"TLE_LINE1":"1 51757U 22016AV  22268.84685976  .00005313  00000-0  35148-3 0  9995","BSTAR":"0.00035148000000","SEMIMAJOR_AXIS":"6917.825","APOAPSIS":"541.084","EPOCH":"2022-09-25T20:19:28.683264","ECCENTRICITY":"0.00020140","MEAN_MOTION":"15.08858032","ELEMENT_SET_NO":"999","MEAN_ELEMENT_THEORY":"SGP4","REV_AT_EPOCH":"3336","OBJECT_NAME":"STARLINK-3459","OBJECT_TYPE":"PAYLOAD","MEAN_ANOMALY":"315.5304","MEAN_MOTION_DDOT":"0.0000000000000","TLE_LINE2":"2 51757  53.2184 209.2653 0002014  44.5850 315.5304 15.08858032 33366","GP_ID":"213507270"},{"MEAN_ANOMALY":"306.1693","OBJECT_TYPE":"PAYLOAD","REV_AT_EPOCH":"3442","OBJECT_NAME":"STARLINK-3458","TLE_LINE2":"2 51758  53.2182 211.6505 0001709  53.9457 306.1693 15.08851659 34428","GP_ID":"213447213","MEAN_MOTION_DDOT":"0.0000000000000","APOAPSIS":"540.892","TLE_LINE1":"1 51758U 22016AW  22268.31421816 -.00001392  00000-0 -69345-4 0  9991","SEMIMAJOR_AXIS":"6917.845","BSTAR":"-0.00006934500000","DECAY_DATE":null,"COUNTRY_CODE":"US","RA_OF_ASC_NODE":"211.6505","CLASSIFICATION_TYPE":"U","MEAN_ELEMENT_THEORY":"SGP4","ELEMENT_SET_NO":"999","MEAN_MOTION":"15.08851659","EPOCH":"2022-09-25T07:32:28.449024","ECCENTRICITY":"0.00017090","NORAD_CAT_ID":"51758","FILE":"3583351","OBJECT_ID":"2022-016AW","LAUNCH_DATE":"2022-02-21","ARG_OF_PERICENTER":"53.9457","EPHEMERIS_TYPE":"0","PERIAPSIS":"538.527","REF_FRAME":"TEME","MEAN_MOTION_DOT":"-0.00001392","INCLINATION":"53.2182","TIME_SYSTEM":"UTC","RCS_SIZE":"LARGE","CENTER_NAME":"EARTH","SITE":"AFETR","PERIOD":"95.437"},{"TLE_LINE1":"1 51759U 22016AX  22268.57822275 -.00001039  00000-0 -47155-4 0  9997","BSTAR":"-0.00004715500000","SEMIMAJOR_AXIS":"6917.847","APOAPSIS":"540.767","DECAY_DATE":null,"COUNTRY_CODE":"US","RA_OF_ASC_NODE":"210.4704","CLASSIFICATION_TYPE":"U","MEAN_ELEMENT_THEORY":"SGP4","ELEMENT_SET_NO":"999","EPOCH":"2022-09-25T13:52:38.445600","ECCENTRICITY":"0.00015250","MEAN_MOTION":"15.08850957","OBJECT_TYPE":"PAYLOAD","MEAN_ANOMALY":"299.2801","OBJECT_NAME":"STARLINK-3456","REV_AT_EPOCH":"3332","TLE_LINE2":"2 51759  53.2196 210.4704 0001525  60.8344 299.2801 15.08850957 33321","GP_ID":"213508761","MEAN_MOTION_DDOT":"0.0000000000000","MEAN_MOTION_DOT":"-0.00001039","INCLINATION":"53.2196","TIME_SYSTEM":"UTC","RCS_SIZE":"LARGE","CENTER_NAME":"EARTH","SITE":"AFETR","PERIOD":"95.437","FILE":"3583828","NORAD_CAT_ID":"51759","ARG_OF_PERICENTER":"60.8344","LAUNCH_DATE":"2022-02-21","OBJECT_ID":"2022-016AX","EPHEMERIS_TYPE":"0","PERIAPSIS":"538.657","REF_FRAME":"TEME"},{"ELEMENT_SET_NO":"999","EPOCH":"2022-09-25T08:14:48.515712","ECCENTRICITY":"0.00018310","MEAN_MOTION":"15.08852735","MEAN_ELEMENT_THEORY":"SGP4","RA_OF_ASC_NODE":"241.5173","CLASSIFICATION_TYPE":"U","BSTAR":"0.00017535000000","TLE_LINE1":"1 51768U 22017A   22268.34361708  .00002505  00000-0  17535-3 0  9997","SEMIMAJOR_AXIS":"6917.841","APOAPSIS":"540.973","COUNTRY_CODE":"US","DECAY_DATE":null,"TLE_LINE2":"2 51768  53.2175 241.5173 0001831  55.5999 304.5166 15.08852735 33623","GP_ID":"213445712","MEAN_MOTION_DDOT":"0.0000000000000","REV_AT_EPOCH":"3362","OBJECT_NAME":"STARLINK-3622","OBJECT_TYPE":"PAYLOAD","MEAN_ANOMALY":"304.5166","PERIOD":"95.437","CENTER_NAME":"EARTH","SITE":"AFWTR","RCS_SIZE":"LARGE","MEAN_MOTION_DOT":"0.00002505","INCLINATION":"53.2175","TIME_SYSTEM":"UTC","PERIAPSIS":"538.440","REF_FRAME":"TEME","EPHEMERIS_TYPE":"0","ARG_OF_PERICENTER":"55.5999","LAUNCH_DATE":"2022-02-25","OBJECT_ID":"2022-017A","FILE":"3583351","NORAD_CAT_ID":"51768"},{"EPHEMERIS_TYPE":"0","REF_FRAME":"TEME","PERIAPSIS":"538.583","FILE":"3583351","NORAD_CAT_ID":"51769","OBJECT_ID":"2022-017B","LAUNCH_DATE":"2022-02-25","ARG_OF_PERICENTER":"60.8219","SITE":"AFWTR","CENTER_NAME":"EARTH","PERIOD":"95.438","TIME_SYSTEM":"UTC","MEAN_MOTION_DOT":"-0.00000974","INCLINATION":"53.2186","RCS_SIZE":"LARGE","MEAN_MOTION_DDOT":"0.0000000000000","TLE_LINE2":"2 51769  53.2186 241.2557 0001679  60.8219 299.2941 15.08840142 32194","GP_ID":"213446463","MEAN_ANOMALY":"299.2941","OBJECT_TYPE":"PAYLOAD","OBJECT_NAME":"STARLINK-3621","REV_AT_EPOCH":"3219","MEAN_ELEMENT_THEORY":"SGP4","MEAN_MOTION":"15.08840142","ECCENTRICITY":"0.00016790","EPOCH":"2022-09-25T09:39:36.686016","ELEMENT_SET_NO":"999","COUNTRY_CODE":"US","DECAY_DATE":null,"APOAPSIS":"540.906","SEMIMAJOR_AXIS":"6917.880","TLE_LINE1":"1 51769U 22017B   22268.40250794 -.00000974  00000-0 -43088-4 0  9990","BSTAR":"-0.00004308800000","CLASSIFICATION_TYPE":"U","RA_OF_ASC_NODE":"241.2557"},{"EPHEMERIS_TYPE":"0","PERIAPSIS":"538.497","REF_FRAME":"TEME","NORAD_CAT_ID":"51770","FILE":"3583351","OBJECT_ID":"2022-017C","LAUNCH_DATE":"2022-02-25","ARG_OF_PERICENTER":"55.4532","CENTER_NAME":"EARTH","SITE":"AFWTR","PERIOD":"95.437","MEAN_MOTION_DOT":"0.00000150","INCLINATION":"53.2172","TIME_SYSTEM":"UTC","RCS_SIZE":"LARGE","GP_ID":"213446713","TLE_LINE2":"2 51770  53.2172 241.5301 0001776  55.4532 304.6628 15.08846376 32195","MEAN_MOTION_DDOT":"0.0000000000000","MEAN_ANOMALY":"304.6628","OBJECT_TYPE":"PAYLOAD","REV_AT_EPOCH":"3219","OBJECT_NAME":"STARLINK-3612","MEAN_ELEMENT_THEORY":"SGP4","ELEMENT_SET_NO":"999","MEAN_MOTION":"15.08846376","ECCENTRICITY":"0.00017760","EPOCH":"2022-09-25T08:09:30.877344","APOAPSIS":"540.955","BSTAR":"0.00002751700000","TLE_LINE1":"1 51770U 22017C   22268.33994071  .00000150  00000-0  27517-4 0  9990","SEMIMAJOR_AXIS":"6917.861","DECAY_DATE":null,"COUNTRY_CODE":"US","RA_OF_ASC_NODE":"241.5301","CLASSIFICATION_TYPE":"U"},{"PERIOD":"95.437","SITE":"AFWTR","CENTER_NAME":"EARTH","RCS_SIZE":"LARGE","TIME_SYSTEM":"UTC","INCLINATION":"53.2177","MEAN_MOTION_DOT":"0.00000527","PERIAPSIS":"538.387","REF_FRAME":"TEME","EPHEMERIS_TYPE":"0","OBJECT_ID":"2022-017D","LAUNCH_DATE":"2022-02-25","ARG_OF_PERICENTER":"53.1010","NORAD_CAT_ID":"51771","FILE":"3583828","MEAN_MOTION":"15.08846781","EPOCH":"2022-09-25T20:43:22.883520","ECCENTRICITY":"0.00019340","ELEMENT_SET_NO":"999","MEAN_ELEMENT_THEORY":"SGP4","CLASSIFICATION_TYPE":"U","RA_OF_ASC_NODE":"239.1862","DECAY_DATE":null,"COUNTRY_CODE":"US","APOAPSIS":"541.063","BSTAR":"0.00005121500000","TLE_LINE1":"1 51771U 22017D   22268.86345930  .00000527  00000-0  51215-4 0  9993","SEMIMAJOR_AXIS":"6917.860","MEAN_MOTION_DDOT":"0.0000000000000","GP_ID":"213508261","TLE_LINE2":"2 51771  53.2177 239.1862 0001934  53.1010 307.0159 15.08846781 32262","OBJECT_NAME":"STARLINK-3614","REV_AT_EPOCH":"3226","MEAN_ANOMALY":"307.0159","OBJECT_TYPE":"PAYLOAD"}];
